ORBCOMM FM05 [-]        
1 25117U 97084F   24039.21214551  .00002833  00000+0  89632-3 0  9999
2 25117  45.0132 217.2855 0002698 239.4573 120.6011 14.42123890369060
ORBCOMM FM06 [+]        
1 25118U 97084G   24039.45219819  .00003177  00000+0  99997-3 0  9995
2 25118  45.0126 216.3209 0001829 244.1329 133.1639 14.42114615370011
ORBCOMM FM07 [-]        
1 25119U 97084H   24039.29686480  .00002888  00000+0  91412-3 0  9992
2 25119  45.0121 217.5505 0003475 231.6958 128.3580 14.42045232369980
ORBCOMM FM03 [-]        
1 25158U 98007B   24039.37785163  .00001872  00000+0  73957-3 0  9994
2 25158 107.9759 201.1438 0045825  30.4889 329.8899 14.31800971353155
ORBCOMM FM04 [+]        
1 25159U 98007C   24039.38296570  .00001975  00000+0  77519-3 0  9997
2 25159 107.9746 204.0305 0041445  28.0195 332.3163 14.32056967353325
ORBCOMM FM17 [-]        
1 25413U 98046A   24039.11461508  .00001559  00000+0  61791-3 0  9992
2 25413  44.9952  69.7382 0004200 260.3346  99.7025 14.32781686332113
ORBCOMM FM18 [-]        
1 25414U 98046B   24039.28293585  .00002924  00000+0  10568-2 0  9991
2 25414  44.9953 357.9567 0005905 311.0871  48.9465 14.35430667333064
ORBCOMM FM19 [+]        
1 25415U 98046C   24039.26562514  .00002565  00000+0  93604-3 0  9995
2 25415  44.9961 359.3268 0004720 305.1609 195.2331 14.35272555333029
